NORAD_CAT_ID,OBJECT_NAME,OBJECT_TYPE,EPOCH,MEAN_MOTION,ECCENTRICITY,INCLINATION,RA_OF_ASC_NODE,ARG_OF_PERICENTER,MEAN_ANOMALY,BSTAR,MEAN_MOTION_DOT,MEAN_MOTION_DDOT,TLE_LINE0,TLE_LINE1,TLE_LINE2,SEMIMAJOR_AXIS,PERIOD,APOGEE,PERIGEE,DECAYED
53622.0,STARLINK-4568,PAYLOAD,2023-10-05 02:04:09,15.08844739,0.0001424,53.2151,253.8403,107.0483,253.0665,0.00014355,1.998e-05,0.0,0 STARLINK-4568,1 53622U 22104AL  23278.08621993  .00001998  00000-0  14355-3 0  9995,2 53622  53.2151 253.8403 0001424 107.0483 253.0665 15.08844739 61223,6917.866,95.437,540.716,538.746,0.0
53622.0,STARLINK-4568,PAYLOAD,2023-10-05 08:25:41,15.08855149,0.0001427,53.2154,252.6513,102.0278,258.0874,0.0002735,4.069e-05,0.0,0 STARLINK-4568,1 53622U 22104AL  23278.35117487  .00004069  00000-0  27350-3 0  9994,2 53622  53.2154 252.6513 0001427 102.0278 258.0874 15.08855149 61263,6917.834,95.437,540.686,538.712,0.0
53622.0,STARLINK-4568,PAYLOAD,2023-10-06 01:54:56,15.08841835,0.0001532,53.2153,249.3798,114.6089,245.5063,0.00014456,2.014e-05,0.0,0 STARLINK-4568,1 53622U 22104AL  23279.07982132  .00002014  00000-0  14456-3 0  9992,2 53622  53.2153 249.3798 0001532 114.6089 245.5063 15.08841835 61376,6917.875,95.437,540.8,538.68,0.0
53622.0,STARLINK-4568,PAYLOAD,2023-10-06 08:16:28,15.08852763,0.0001343,53.2166,248.1912,94.906,265.2086,0.00035307,5.338e-05,0.0,0 STARLINK-4568,1 53622U 22104AL  23279.34477836  .00005338  00000-0  35307-3 0  9992,2 53622  53.2166 248.1912 0001343  94.9060 265.2086 15.08852763 62090,6917.841,95.437,540.635,538.777,0.0
53622.0,STARLINK-4568,PAYLOAD,2023-10-06 14:38:01,15.08843003,0.0001934,53.2164,247.0014,82.565,277.5561,0.000161,2.275e-05,0.0,0 STARLINK-4568,1 53622U 22104AL  23279.60974068  .00002275  00000-0  16100-3 0  9997,2 53622  53.2164 247.0014 0001934  82.5650 277.5561 15.08843003 62139,6917.871,95.437,541.074,538.398,0.0
53622.0,STARLINK-4568,PAYLOAD,2023-10-07 01:45:43,15.08835749,0.0001475,53.2158,244.922,110.6399,249.4751,6.9335e-05,8.16e-06,0.0,0 STARLINK-4568,1 53622U 22104AL  23280.07342318  .00000816  00000-0  69335-4 0  9995,2 53622  53.2158 244.9220 0001475 110.6399 249.4751 15.08835749 61529,6917.893,95.438,540.779,538.738,0.0
53622.0,STARLINK-4568,PAYLOAD,2023-10-07 06:31:53,15.08841162,0.0001335,53.2166,244.0319,96.2729,263.8415,0.00027134,4.033e-05,0.0,0 STARLINK-4568,1 53622U 22104AL  23280.27214346  .00004033  00000-0  27134-3 0  9991,2 53622  53.2166 244.0319 0001335  96.2729 263.8415 15.08841162 62231,6917.877,95.437,540.665,538.818,0.0
53622.0,STARLINK-4568,PAYLOAD,2023-10-07 14:28:49,15.08836771,0.0001313,53.2156,242.5419,101.34,258.774,0.0003843,5.833e-05,0.0,0 STARLINK-4568,1 53622U 22104AL  23280.60334510  .00005833  00000-0  38430-3 0  9994,2 53622  53.2156 242.5419 0001313 101.3400 258.7740 15.08836771 62283,6917.89,95.438,540.664,538.847,0.0
53622.0,STARLINK-4568,PAYLOAD,2023-10-08 03:11:53,15.08847903,0.0001364,53.2156,240.163,91.8868,268.228,0.0003534,5.342e-05,0.0,0 STARLINK-4568,1 53622U 22104AL  23281.13326350  .00005342  00000-0  35340-3 0  9998,2 53622  53.2156 240.1630 0001364  91.8868 268.2280 15.08847903 61686,6917.856,95.437,540.665,538.778,0.0
53622.0,STARLINK-4568,PAYLOAD,2023-10-08 06:22:40,15.08855777,0.0001421,53.2148,239.5687,91.7338,268.3817,0.00073805,0.00011483,0.0,0 STARLINK-4568,1 53622U 22104AL  23281.26574245  .00011483  00000-0  73805-3 0  9991,2 53622  53.2148 239.5687 0001421  91.7338 268.3817 15.08855777 62389,6917.832,95.437,540.68,538.714,0.0
53622.0,STARLINK-4568,PAYLOAD,2023-10-08 20:41:08,15.08848294,0.0001734,53.2145,236.8936,89.675,270.4441,0.00038815,5.896e-05,0.0,0 STARLINK-4568,1 53622U 22104AL  23281.86190342  .00005896  00000-0  38815-3 0  9992,2 53622  53.2145 236.8936 0001734  89.6750 270.4441 15.08848294 62477,6917.855,95.437,540.92,538.52,0.0
53622.0,STARLINK-4568,PAYLOAD,2023-10-09 03:02:40,15.08847123,0.0001632,53.2153,235.7037,91.7722,268.3457,0.00028756,4.292e-05,0.0,0 STARLINK-4568,1 53622U 22104AL  23282.12686275  .00004292  00000-0  28756-3 0  9999,2 53622  53.2153 235.7037 0001632  91.7722 268.3457 15.08847123 61838,6917.859,95.437,540.853,538.595,0.0
53622.0,STARLINK-4568,PAYLOAD,2023-10-09 06:13:27,15.08850715,0.0001642,53.2153,235.1087,90.1756,269.9425,0.00038431,5.835e-05,0.0,0 STARLINK-4568,1 53622U 22104AL  23282.25934151  .00005835  00000-0  38431-3 0  9997,2 53622  53.2153 235.1087 0001642  90.1756 269.9425 15.08850715 62539,6917.848,95.437,540.849,538.577,0.0
53622.0,STARLINK-4568,PAYLOAD,2023-10-09 14:10:23,15.08834864,0.0002353,53.2154,233.6212,80.5861,279.5397,-3.7364e-05,-8.83e-06,0.0,0 STARLINK-4568,1 53622U 22104AL  23282.59054879 -.00000883  00000-0 -37364-4 0  9999,2 53622  53.2154 233.6212 0002353  80.5861 279.5397 15.08834864 61905,6917.896,95.438,541.389,538.133,0.0
53622.0,STARLINK-4568,PAYLOAD,2023-10-09 20:31:55,15.08839459,0.0002217,53.2147,232.4315,82.9828,277.1416,0.00020319,2.947e-05,0.0,0 STARLINK-4568,1 53622U 22104AL  23282.85550841  .00002947  00000-0  20319-3 0  9990,2 53622  53.2147 232.4315 0002217  82.9828 277.1416 15.08839459 62627,6917.882,95.438,541.281,538.213,0.0
53622.0,STARLINK-4568,PAYLOAD,2023-10-10 06:04:14,15.08841591,0.0001719,53.2149,230.6483,79.3883,280.7303,0.00056656,8.741e-05,0.0,0 STARLINK-4568,1 53622U 22104AL  23283.25294829  .00008741  00000-0  56656-3 0  9997,2 53622  53.2149 230.6483 0001719  79.3883 280.7303 15.08841591 62009,6917.876,95.437,540.93,538.551,0.0
53622.0,STARLINK-4568,PAYLOAD,2023-10-10 14:01:10,15.08837454,0.0001243,53.2152,229.16,98.3665,261.7469,0.00045885,7.022e-05,0.0,0 STARLINK-4568,1 53622U 22104AL  23283.58414835  .00007022  00000-0  45885-3 0  9997,2 53622  53.2152 229.1600 0001243  98.3665 261.7469 15.08837454 62733,6917.888,95.438,540.613,538.893,0.0
53622.0,STARLINK-4568,PAYLOAD,2023-10-11 13:51:58,15.08837986,0.0001868,53.2164,224.6994,94.2812,265.8393,0.00046139,7.062e-05,0.0,0 STARLINK-4568,1 53622U 22104AL  23284.57775629  .00007062  00000-0  46139-3 0  9995,2 53622  53.2164 224.6994 0001868  94.2812 265.8393 15.08837986 62881,6917.887,95.438,541.044,538.459,0.0
53622.0,STARLINK-4568,PAYLOAD,2023-10-12 05:45:49,15.08855263,0.0001353,53.2168,221.7268,100.0891,260.0253,0.0015508,0.00024489,0.0,0 STARLINK-4568,1 53622U 22104AL  23285.24015457  .00024489  00000-0  15508-2 0  9993,2 53622  53.2168 221.7268 0001353 100.0891 260.0253 15.08855263 62980,6917.834,95.437,540.635,538.763,0.0
53622.0,STARLINK-4568,PAYLOAD,2023-10-13 02:25:50,15.08864598,0.0001083,53.2166,217.8611,81.1027,279.0088,0.0018205,0.00028824,0.0,0 STARLINK-4568,1 53622U 22104AL  23286.10127362  .00028824  00000-0  18205-2 0  9992,2 53622  53.2166 217.8611 0001083  81.1027 279.0088 15.08864598 62433,6917.805,95.436,540.419,538.921,0.0
53622.0,STARLINK-4568,PAYLOAD,2023-10-13 05:36:36,15.08871942,0.0001062,53.2167,217.2664,80.2576,279.8536,0.0017475,0.00027657,0.0,0 STARLINK-4568,1 53622U 22104AL  23286.23375064  .00027657  00000-0  17475-2 0  9991,2 53622  53.2167 217.2664 0001062  80.2576 279.8536 15.08871942 63137,6917.783,95.436,540.382,538.913,0.0
53622.0,STARLINK-4568,PAYLOAD,2023-10-13 19:55:04,15.08858855,0.0001268,53.2168,214.5896,81.9237,278.1899,0.0021529,0.00034159,0.0,0 STARLINK-4568,1 53622U 22104AL  23286.82991229  .00034159  00000-0  21529-2 0  9993,2 53622  53.2168 214.5896 0001268  81.9237 278.1899 15.08858855 62541,6917.823,95.436,540.565,538.811,0.0
53622.0,STARLINK-4568,PAYLOAD,2023-10-14 11:48:55,15.08866555,0.000151,53.217,211.6161,72.3591,287.7566,0.0014652,0.00023125,0.0,0 STARLINK-4568,1 53622U 22104AL  23287.49230512  .00023125  00000-0  14652-2 0  9998,2 53622  53.2170 211.6161 0001510  72.3591 287.7566 15.08866555 63324,6917.799,95.436,540.709,538.62,0.0
53622.0,STARLINK-4568,PAYLOAD,2023-10-14 18:10:28,15.08823994,0.0002141,53.2167,210.4272,83.1992,276.9244,3.1538e-05,2.14e-06,0.0,0 STARLINK-4568,1 53622U 22104AL  23287.75727198  .00000214  00000-0  31538-4 0  9996,2 53622  53.2167 210.4272 0002141  83.1992 276.9244 15.08823994 62687,6917.929,95.439,541.275,538.313,0.0
53622.0,STARLINK-4568,PAYLOAD,2023-10-15 02:07:24,15.08811775,0.0001395,53.2166,208.9411,88.5616,271.5536,0.0014795,0.00023318,0.0,0 STARLINK-4568,1 53622U 22104AL  23288.08848019  .00023318  00000-0  14795-2 0  9993,2 53622  53.2166 208.9411 0001395  88.5616 271.5536 15.08811775 62730,6917.967,95.439,540.797,538.867,0.0
53622.0,STARLINK-4568,PAYLOAD,2023-10-15 11:39:43,15.0883086,0.0001439,53.2171,207.1575,83.7394,276.3762,0.0015622,0.00024656,0.0,0 STARLINK-4568,1 53622U 22104AL  23288.48592516  .00024656  00000-0  15622-2 0  9991,2 53622  53.2171 207.1575 0001439  83.7394 276.3762 15.08830860 63479,6917.908,95.438,540.769,538.778,0.0
53622.0,STARLINK-4568,PAYLOAD,2023-10-16 03:33:34,15.08865124,0.0001372,53.2159,204.1836,82.8098,277.305,0.0017775,0.00028134,0.0,0 STARLINK-4568,1 53622U 22104AL  23289.14832152  .00028134  00000-0  17775-2 0  9994,2 53622  53.2159 204.1836 0001372  82.8098 277.3050 15.08865124 62896,6917.804,95.436,540.618,538.719,0.0
53622.0,STARLINK-4568,PAYLOAD,2023-10-16 11:30:30,15.0885911,0.0001296,53.2165,202.6966,96.8822,263.2318,0.00072067,0.00011206,0.0,0 STARLINK-4568,1 53622U 22104AL  23289.47951910  .00011206  00000-0  72067-3 0  9992,2 53622  53.2165 202.6966 0001296  96.8822 263.2318 15.08859110 62940,6917.822,95.436,540.584,538.79,0.0
53622.0,STARLINK-4568,PAYLOAD,2023-10-16 21:02:49,15.08856424,0.0001586,53.2149,200.9133,94.9263,265.191,0.001053,0.00016518,0.0,0 STARLINK-4568,1 53622U 22104AL  23289.87695951  .00016518  00000-0  10530-2 0  9993,2 53622  53.2149 200.9133 0001586  94.9263 265.1910 15.08856424 63685,6917.83,95.437,540.792,538.598,0.0
53622.0,STARLINK-4568,PAYLOAD,2023-10-17 11:21:17,15.08860593,0.0001721,53.2153,198.2361,82.3308,277.788,0.0014176,0.00022358,0.0,0 STARLINK-4568,1 53622U 22104AL  23290.47311679  .00022358  00000-0  14176-2 0  9992,2 53622  53.2153 198.2361 0001721  82.3308 277.7880 15.08860593 63096,6917.817,95.436,540.873,538.492,0.0
